COSMOS 1933             
1 18958U 88020A   25356.31638824  .00004287  00000+0  21428-3 0  9995
2 18958  82.5141 327.4154 0006220 102.9929 257.2000 15.17184739 38498
SL-3 R/B                
1 19046U 88032B   25356.81000454  .00005196  00000+0  25034-3 0  9991
2 19046  97.5091 335.4612 0027759 138.7140 221.6200 15.18836068 40431
SL-16 R/B               
1 19120U 88039B   25356.82329208  .00000125  00000+0  81939-4 0  9997
2 19120  71.0131 231.0781 0019553  99.0161 261.3178 14.19599172947476
COSMOS 1953             
1 19210U 88050A   25351.75027580  .00004793  00000+0  17925-3 0  9993
2 19210  82.5093 240.5536 0013540  56.0210 304.2313 15.26995692 25270
SL-8 R/B                
1 19257U 88053B   25356.83062649  .00000238  00000+0  85676-4 0  9995
2 19257  74.0471 254.1224 0018960  94.4219 328.6422 14.38865030965546
COSMOS 1975             
1 19573U 88093A   25356.80997977  .00006497  00000+0  24637-3 0  9990
2 19573  82.5190 194.7465 0013026  81.1208 279.1504 15.26601481  7672
SL-14 R/B               
1 19574U 88093B   25356.83148439  .00000496  00000+0  54471-4 0  9998
2 19574  82.5314 114.1972 0019308 294.1463 235.1088 14.85559327989626
SL-16 R/B               
1 19650U 88102B   25356.84189846  .00000227  00000+0  13854-3 0  9993
2 19650  71.0005 313.1868 0012471 134.5310 225.6834 14.16141139916016
INTERCOSMOS 24          
1 20261U 89080A   25356.83382112  .00000671  00000+0  18843-3 0  9995
2 20261  82.6051 154.3902 1188991 111.1142 262.1061 12.59455704657128
SL-14 R/B               
1 20262U 89080C   25356.58493948  .00000327  00000+0  94581-4 0  9990
2 20262  82.5917 222.7007 1230485   1.0910 359.2443 12.50421037650512
DELTA 1 R/B             
1 20323U 89089B   25356.84869288  .00000306  00000+0  84478-4 0  9991
2 20323  97.0744 211.4837 0069321   6.6687 353.5417 14.50579847884595
ARIANE 40 R/B           
1 20443U 90005H   25356.39893486  .00000280  00000+0  10285-3 0  9996
2 20443  98.3229  54.3034 0011235  79.6523 280.5932 14.39805412881688
