CCSDS_OMM_VERS = 2.0
CREATION_DATE  = 
ORIGINATOR     = 

OBJECT_NAME    = COSMOS 1933
OBJECT_ID      = 1988-020A
CENTER_NAME    = EARTH
REF_FRAME      = TEME
TIME_SYSTEM    = UTC
MEAN_ELEMENT_THEORY = SGP/SGP4

EPOCH          = 2025-12-22T07:35:35.943936
MEAN_MOTION    = 15.17184739
ECCENTRICITY   = .00062204
INCLINATION    = 82.5141
RA_OF_ASC_NODE = 327.4154
ARG_OF_PERICENTER = 102.9929
MEAN_ANOMALY   = 257.2000

EPHEMERIS_TYPE = 0
CLASSIFICATION_TYPE = U
NORAD_CAT_ID   = 18958
ELEMENT_SET_NO = 999
REV_AT_EPOCH   = 3849
BSTAR          = .2142837E-3
MEAN_MOTION_DOT = .4287E-4
MEAN_MOTION_DDOT = 0

CCSDS_OMM_VERS = 2.0
CREATION_DATE  = 
ORIGINATOR     = 

OBJECT_NAME    = SL-3 R/B
OBJECT_ID      = 1988-032B
CENTER_NAME    = EARTH
REF_FRAME      = TEME
TIME_SYSTEM    = UTC
MEAN_ELEMENT_THEORY = SGP/SGP4

EPOCH          = 2025-12-22T19:26:24.392256
MEAN_MOTION    = 15.18836068
ECCENTRICITY   = .0027759
INCLINATION    = 97.5091
RA_OF_ASC_NODE = 335.4612
ARG_OF_PERICENTER = 138.7140
MEAN_ANOMALY   = 221.6200

EPHEMERIS_TYPE = 0
CLASSIFICATION_TYPE = U
NORAD_CAT_ID   = 19046
ELEMENT_SET_NO = 999
REV_AT_EPOCH   = 4043
BSTAR          = .25034E-3
MEAN_MOTION_DOT = .5196E-4
MEAN_MOTION_DDOT = 0

CCSDS_OMM_VERS = 2.0
CREATION_DATE  = 
ORIGINATOR     = 

OBJECT_NAME    = SL-16 R/B
OBJECT_ID      = 1988-039B
CENTER_NAME    = EARTH
REF_FRAME      = TEME
TIME_SYSTEM    = UTC
MEAN_ELEMENT_THEORY = SGP/SGP4

EPOCH          = 2025-12-22T19:45:32.435712
MEAN_MOTION    = 14.19599172
ECCENTRICITY   = .0019553
INCLINATION    = 71.0131
RA_OF_ASC_NODE = 231.0781
ARG_OF_PERICENTER = 99.0161
MEAN_ANOMALY   = 261.3178

EPHEMERIS_TYPE = 0
CLASSIFICATION_TYPE = U
NORAD_CAT_ID   = 19120
ELEMENT_SET_NO = 999
REV_AT_EPOCH   = 94747
BSTAR          = .81939E-4
MEAN_MOTION_DOT = .125E-5
MEAN_MOTION_DDOT = 0

CCSDS_OMM_VERS = 2.0
CREATION_DATE  = 
ORIGINATOR     = 

OBJECT_NAME    = COSMOS 1953
OBJECT_ID      = 1988-050A
CENTER_NAME    = EARTH
REF_FRAME      = TEME
TIME_SYSTEM    = UTC
MEAN_ELEMENT_THEORY = SGP/SGP4

EPOCH          = 2025-12-17T18:00:23.829120
MEAN_MOTION    = 15.26995692
ECCENTRICITY   = .00135407
INCLINATION    = 82.5093
RA_OF_ASC_NODE = 240.5536
ARG_OF_PERICENTER = 56.0210
MEAN_ANOMALY   = 304.2313

EPHEMERIS_TYPE = 0
CLASSIFICATION_TYPE = U
NORAD_CAT_ID   = 19210
ELEMENT_SET_NO = 999
REV_AT_EPOCH   = 2527
BSTAR          = .17925093E-3
MEAN_MOTION_DOT = .4793E-4
MEAN_MOTION_DDOT = 0

CCSDS_OMM_VERS = 2.0
CREATION_DATE  = 
ORIGINATOR     = 

OBJECT_NAME    = SL-8 R/B
OBJECT_ID      = 1988-053B
CENTER_NAME    = EARTH
REF_FRAME      = TEME
TIME_SYSTEM    = UTC
MEAN_ELEMENT_THEORY = SGP/SGP4

EPOCH          = 2025-12-22T19:56:06.128736
MEAN_MOTION    = 14.38865030
ECCENTRICITY   = .001896
INCLINATION    = 74.0471
RA_OF_ASC_NODE = 254.1224
ARG_OF_PERICENTER = 94.4219
MEAN_ANOMALY   = 328.6422

EPHEMERIS_TYPE = 0
CLASSIFICATION_TYPE = U
NORAD_CAT_ID   = 19257
ELEMENT_SET_NO = 999
REV_AT_EPOCH   = 96554
BSTAR          = .85676E-4
MEAN_MOTION_DOT = .238E-5
MEAN_MOTION_DDOT = 0

CCSDS_OMM_VERS = 2.0
CREATION_DATE  = 
ORIGINATOR     = 

OBJECT_NAME    = COSMOS 1975
OBJECT_ID      = 1988-093A
CENTER_NAME    = EARTH
REF_FRAME      = TEME
TIME_SYSTEM    = UTC
MEAN_ELEMENT_THEORY = SGP/SGP4

EPOCH          = 2025-12-22T19:26:22.252128
MEAN_MOTION    = 15.26601481
ECCENTRICITY   = .0013026
INCLINATION    = 82.5190
RA_OF_ASC_NODE = 194.7465
ARG_OF_PERICENTER = 81.1208
MEAN_ANOMALY   = 279.1504

EPHEMERIS_TYPE = 0
CLASSIFICATION_TYPE = U
NORAD_CAT_ID   = 19573
ELEMENT_SET_NO = 999
REV_AT_EPOCH   = 767
BSTAR          = .24637E-3
MEAN_MOTION_DOT = .6497E-4
MEAN_MOTION_DDOT = 0

CCSDS_OMM_VERS = 2.0
CREATION_DATE  = 
ORIGINATOR     = 

OBJECT_NAME    = SL-14 R/B
OBJECT_ID      = 1988-093B
CENTER_NAME    = EARTH
REF_FRAME      = TEME
TIME_SYSTEM    = UTC
MEAN_ELEMENT_THEORY = SGP/SGP4

EPOCH          = 2025-12-22T19:57:20.251296
MEAN_MOTION    = 14.85559327
ECCENTRICITY   = .0019308
INCLINATION    = 82.5314
RA_OF_ASC_NODE = 114.1972
ARG_OF_PERICENTER = 294.1463
MEAN_ANOMALY   = 235.1088

EPHEMERIS_TYPE = 0
CLASSIFICATION_TYPE = U
NORAD_CAT_ID   = 19574
ELEMENT_SET_NO = 999
REV_AT_EPOCH   = 98962
BSTAR          = .54471E-4
MEAN_MOTION_DOT = .496E-5
MEAN_MOTION_DDOT = 0

CCSDS_OMM_VERS = 2.0
CREATION_DATE  = 
ORIGINATOR     = 

OBJECT_NAME    = SL-16 R/B
OBJECT_ID      = 1988-102B
CENTER_NAME    = EARTH
REF_FRAME      = TEME
TIME_SYSTEM    = UTC
MEAN_ELEMENT_THEORY = SGP/SGP4

EPOCH          = 2025-12-22T20:12:20.026944
MEAN_MOTION    = 14.16141139
ECCENTRICITY   = .0012471
INCLINATION    = 71.0005
RA_OF_ASC_NODE = 313.1868
ARG_OF_PERICENTER = 134.5310
MEAN_ANOMALY   = 225.6834

EPHEMERIS_TYPE = 0
CLASSIFICATION_TYPE = U
NORAD_CAT_ID   = 19650
ELEMENT_SET_NO = 999
REV_AT_EPOCH   = 91601
BSTAR          = .13854E-3
MEAN_MOTION_DOT = .227E-5
MEAN_MOTION_DDOT = 0

CCSDS_OMM_VERS = 2.0
CREATION_DATE  = 
ORIGINATOR     = 

OBJECT_NAME    = INTERCOSMOS 24
OBJECT_ID      = 1989-080A
CENTER_NAME    = EARTH
REF_FRAME      = TEME
TIME_SYSTEM    = UTC
MEAN_ELEMENT_THEORY = SGP/SGP4

EPOCH          = 2025-12-22T20:00:42.144768
MEAN_MOTION    = 12.59455704
ECCENTRICITY   = .1188991
INCLINATION    = 82.6051
RA_OF_ASC_NODE = 154.3902
ARG_OF_PERICENTER = 111.1142
MEAN_ANOMALY   = 262.1061

EPHEMERIS_TYPE = 0
CLASSIFICATION_TYPE = U
NORAD_CAT_ID   = 20261
ELEMENT_SET_NO = 999
REV_AT_EPOCH   = 65712
BSTAR          = .18843E-3
MEAN_MOTION_DOT = .671E-5
MEAN_MOTION_DDOT = 0

CCSDS_OMM_VERS = 2.0
CREATION_DATE  = 
ORIGINATOR     = 

OBJECT_NAME    = SL-14 R/B
OBJECT_ID      = 1989-080C
CENTER_NAME    = EARTH
REF_FRAME      = TEME
TIME_SYSTEM    = UTC
MEAN_ELEMENT_THEORY = SGP/SGP4

EPOCH          = 2025-12-22T14:02:18.771072
MEAN_MOTION    = 12.50421037
ECCENTRICITY   = .12304856
INCLINATION    = 82.5917
RA_OF_ASC_NODE = 222.7007
ARG_OF_PERICENTER = 1.0910
MEAN_ANOMALY   = 359.2443

EPHEMERIS_TYPE = 0
CLASSIFICATION_TYPE = U
NORAD_CAT_ID   = 20262
ELEMENT_SET_NO = 999
REV_AT_EPOCH   = 65051
BSTAR          = .94581195E-4
MEAN_MOTION_DOT = .327E-5
MEAN_MOTION_DDOT = 0

CCSDS_OMM_VERS = 2.0
CREATION_DATE  = 
ORIGINATOR     = 

OBJECT_NAME    = DELTA 1 R/B
OBJECT_ID      = 1989-089B
CENTER_NAME    = EARTH
REF_FRAME      = TEME
TIME_SYSTEM    = UTC
MEAN_ELEMENT_THEORY = SGP/SGP4

EPOCH          = 2025-12-22T20:22:07.064832
MEAN_MOTION    = 14.50579847
ECCENTRICITY   = .0069321
INCLINATION    = 97.0744
RA_OF_ASC_NODE = 211.4837
ARG_OF_PERICENTER = 6.6687
MEAN_ANOMALY   = 353.5417

EPHEMERIS_TYPE = 0
CLASSIFICATION_TYPE = U
NORAD_CAT_ID   = 20323
ELEMENT_SET_NO = 999
REV_AT_EPOCH   = 88459
BSTAR          = .84478E-4
MEAN_MOTION_DOT = .306E-5
MEAN_MOTION_DDOT = 0

CCSDS_OMM_VERS = 2.0
CREATION_DATE  = 
ORIGINATOR     = 

OBJECT_NAME    = ARIANE 40 R/B
OBJECT_ID      = 1990-005H
CENTER_NAME    = EARTH
REF_FRAME      = TEME
TIME_SYSTEM    = UTC
MEAN_ELEMENT_THEORY = SGP/SGP4

EPOCH          = 2025-12-22T09:34:27.971904
MEAN_MOTION    = 14.39805412
ECCENTRICITY   = .00112353
INCLINATION    = 98.3229
RA_OF_ASC_NODE = 54.3034
ARG_OF_PERICENTER = 79.6523
MEAN_ANOMALY   = 280.5932

EPHEMERIS_TYPE = 0
CLASSIFICATION_TYPE = U
NORAD_CAT_ID   = 20443
ELEMENT_SET_NO = 999
REV_AT_EPOCH   = 88168
BSTAR          = .10284644E-3
MEAN_MOTION_DOT = .28E-5
MEAN_MOTION_DDOT = 0

